{
  "type": "FeatureCollection",
  "features": [
    {
      "type": "Feature",
      "properties": {
        "norad_id": 33939,
        "name": "COSMOS 2251 DEB",
        "group": "cosmos-2251-debris",
        "lat": -13.126815958354245,
        "lon": 81.87964885979689,
        "alt_km": 572.3242784509812,
        "timestamp": "2025-12-10T05:46:14.219787+00:00",
        "meta_object_name": "COSMOS 2251 DEB",
        "meta_object_id": "1993-036EU",
        "meta_epoch": "2025-12-09T17:01:19.143840",
        "meta_mean_motion": 14.99504863,
        "meta_eccentricity": 0.0003102,
        "meta_inclination": 74.0073,
        "meta_ra_of_asc_node": 86.7948,
        "meta_arg_of_pericenter": 74.1883,
        "meta_mean_anomaly": 285.9645,
        "meta_ephemeris_type": 0,
        "meta_classification_type": "U",
        "meta_norad_cat_id": 33939,
        "meta_element_set_no": 999,
        "meta_rev_at_epoch": 88707,
        "meta_bstar": 0.0046804,
        "meta_mean_motion_dot": 0.00057925,
        "meta_mean_motion_ddot": 0,
        "tle_line1": "1 33939U 93036EU  25343.70924935  .00057925  00000+0  46804-2 0  9995",
        "tle_line2": "2 33939  74.0073  86.7948 0003102  74.1883 285.9645 14.99504863887077"
      },
      "geometry": {
        "type": "Point",
        "coordinates": [
          81.87964885979689,
          -13.126815958354245
        ]
      }
    },
    {
      "type": "Feature",
      "properties": {
        "norad_id": 33940,
        "name": "COSMOS 2251 DEB",
        "group": "cosmos-2251-debris",
        "lat": 51.763361302316596,
        "lon": -53.040288790560666,
        "alt_km": 693.8010710494409,
        "timestamp": "2025-12-10T05:46:14.219797+00:00",
        "meta_object_name": "COSMOS 2251 DEB",
        "meta_object_id": "1993-036EV",
        "meta_epoch": "2025-12-09T17:45:49.461120",
        "meta_mean_motion": 14.58744836,
        "meta_eccentricity": 0.0011458,
        "meta_inclination": 74.0399,
        "meta_ra_of_asc_node": 149.2082,
        "meta_arg_of_pericenter": 228.7655,
        "meta_mean_anomaly": 150.3426,
        "meta_ephemeris_type": 0,
        "meta_classification_type": "U",
        "meta_norad_cat_id": 33940,
        "meta_element_set_no": 999,
        "meta_rev_at_epoch": 88550,
        "meta_bstar": 0.0017298,
        "meta_mean_motion_dot": 8.065e-05,
        "meta_mean_motion_ddot": 0,
        "tle_line1": "1 33940U 93036EV  25343.74015580  .00008065  00000+0  17298-2 0  9994",
        "tle_line2": "2 33940  74.0399 149.2082 0011458 228.7655 150.3426 14.58744836885500"
      },
      "geometry": {
        "type": "Point",
        "coordinates": [
          -53.040288790560666,
          51.763361302316596
        ]
      }
    },
    {
      "type": "Feature",
      "properties": {
        "norad_id": 33942,
        "name": "COSMOS 2251 DEB",
        "group": "cosmos-2251-debris",
        "lat": 29.067868350641298,
        "lon": 90.27651479385827,
        "alt_km": 775.411161334634,
        "timestamp": "2025-12-10T05:46:14.219807+00:00",
        "meta_object_name": "COSMOS 2251 DEB",
        "meta_object_id": "1993-036EX",
        "meta_epoch": "2025-12-09T19:11:12.524928",
        "meta_mean_motion": 14.37982234,
        "meta_eccentricity": 0.0020177,
        "meta_inclination": 74.0366,
        "meta_ra_of_asc_node": 280.2435,
        "meta_arg_of_pericenter": 4.1326,
        "meta_mean_anomaly": 23.3101,
        "meta_ephemeris_type": 0,
        "meta_classification_type": "U",
        "meta_norad_cat_id": 33942,
        "meta_element_set_no": 999,
        "meta_rev_at_epoch": 88092,
        "meta_bstar": 0.00043223,
        "meta_mean_motion_dot": 1.284e-05,
        "meta_mean_motion_ddot": 0,
        "tle_line1": "1 33942U 93036EX  25343.79945052  .00001284  00000+0  43223-3 0  9991",
        "tle_line2": "2 33942  74.0366 280.2435 0020177   4.1326  23.3101 14.37982234880926"
      },
      "geometry": {
        "type": "Point",
        "coordinates": [
          90.27651479385827,
          29.067868350641298
        ]
      }
    },
    {
      "type": "Feature",
      "properties": {
        "norad_id": 33944,
        "name": "COSMOS 2251 DEB",
        "group": "cosmos-2251-debris",
        "lat": 27.863786786684113,
        "lon": -37.773252577507655,
        "alt_km": 692.8019345307794,
        "timestamp": "2025-12-10T05:46:14.219817+00:00",
        "meta_object_name": "COSMOS 2251 DEB",
        "meta_object_id": "1993-036EZ",
        "meta_epoch": "2025-12-09T08:26:22.268832",
        "meta_mean_motion": 14.37332524,
        "meta_eccentricity": 0.01120558,
        "meta_inclination": 74.0401,
        "meta_ra_of_asc_node": 315.1596,
        "meta_arg_of_pericenter": 55.6495,
        "meta_mean_anomaly": 56.9297,
        "meta_ephemeris_type": 0,
        "meta_classification_type": "U",
        "meta_norad_cat_id": 33944,
        "meta_element_set_no": 999,
        "meta_rev_at_epoch": 87979,
        "meta_bstar": 0.00058921002,
        "meta_mean_motion_dot": 1.864e-05,
        "meta_mean_motion_ddot": 0,
        "tle_line1": "1 33944U 93036EZ  25343.35164663  .00001864  00000+0  58921-3 0  9991",
        "tle_line2": "2 33944  74.0401 315.1596 0112055  55.6495  56.9297 14.37332524879791"
      },
      "geometry": {
        "type": "Point",
        "coordinates": [
          -37.773252577507655,
          27.863786786684113
        ]
      }
    },
    {
      "type": "Feature",
      "properties": {
        "norad_id": 33945,
        "name": "COSMOS 2251 DEB",
        "group": "cosmos-2251-debris",
        "lat": -26.183456116887275,
        "lon": 138.94203047468508,
        "alt_km": 797.028953359586,
        "timestamp": "2025-12-10T05:46:14.219827+00:00",
        "meta_object_name": "COSMOS 2251 DEB",
        "meta_object_id": "1993-036FA",
        "meta_epoch": "2025-12-09T15:25:11.486784",
        "meta_mean_motion": 14.34597287,
        "meta_eccentricity": 0.0021787,
        "meta_inclination": 74.0295,
        "meta_ra_of_asc_node": 311.9425,
        "meta_arg_of_pericenter": 39.2219,
        "meta_mean_anomaly": 321.0507,
        "meta_ephemeris_type": 0,
        "meta_classification_type": "U",
        "meta_norad_cat_id": 33945,
        "meta_element_set_no": 999,
        "meta_rev_at_epoch": 87971,
        "meta_bstar": 0.00025835,
        "meta_mean_motion_dot": 7.06e-06,
        "meta_mean_motion_ddot": 0,
        "tle_line1": "1 33945U 93036FA  25343.64249406  .00000706  00000+0  25835-3 0  9995",
        "tle_line2": "2 33945  74.0295 311.9425 0021787  39.2219 321.0507 14.34597287879719"
      },
      "geometry": {
        "type": "Point",
        "coordinates": [
          138.94203047468508,
          -26.183456116887275
        ]
      }
    },
    {
      "type": "Feature",
      "properties": {
        "norad_id": 33948,
        "name": "COSMOS 2251 DEB",
        "group": "cosmos-2251-debris",
        "lat": 44.58257084784323,
        "lon": -33.89265676827382,
        "alt_km": 753.7318749188089,
        "timestamp": "2025-12-10T05:46:14.219836+00:00",
        "meta_object_name": "COSMOS 2251 DEB",
        "meta_object_id": "1993-036FD",
        "meta_epoch": "2025-12-09T07:48:44.959968",
        "meta_mean_motion": 14.35623304,
        "meta_eccentricity": 0.00225633,
        "meta_inclination": 74.0354,
        "meta_ra_of_asc_node": 311.3985,
        "meta_arg_of_pericenter": 28.1911,
        "meta_mean_anomaly": 332.0458,
        "meta_ephemeris_type": 0,
        "meta_classification_type": "U",
        "meta_norad_cat_id": 33948,
        "meta_element_set_no": 999,
        "meta_rev_at_epoch": 87974,
        "meta_bstar": 0.00037266618,
        "meta_mean_motion_dot": 1.052e-05,
        "meta_mean_motion_ddot": 0,
        "tle_line1": "1 33948U 93036FD  25343.32552037  .00001052  00000+0  37267-3 0  9997",
        "tle_line2": "2 33948  74.0354 311.3985 0022563  28.1911 332.0458 14.35623304879743"
      },
      "geometry": {
        "type": "Point",
        "coordinates": [
          -33.89265676827382,
          44.58257084784323
        ]
      }
    },
    {
      "type": "Feature",
      "properties": {
        "norad_id": 33971,
        "name": "COSMOS 2251 DEB",
        "group": "cosmos-2251-debris",
        "lat": 70.15422558925708,
        "lon": -49.11769234760456,
        "alt_km": 749.7286823964905,
        "timestamp": "2025-12-10T05:46:14.219847+00:00",
        "meta_object_name": "COSMOS 2251 DEB",
        "meta_object_id": "1993-036FE",
        "meta_epoch": "2025-12-09T05:07:09.829344",
        "meta_mean_motion": 14.39716072,
        "meta_eccentricity": 0.0018384,
        "meta_inclination": 74.0252,
        "meta_ra_of_asc_node": 260.25,
        "meta_arg_of_pericenter": 1.3462,
        "meta_mean_anomaly": 155.0762,
        "meta_ephemeris_type": 0,
        "meta_classification_type": "U",
        "meta_norad_cat_id": 33971,
        "meta_element_set_no": 999,
        "meta_rev_at_epoch": 88088,
        "meta_bstar": 0.00054716,
        "meta_mean_motion_dot": 1.691e-05,
        "meta_mean_motion_ddot": 0,
        "tle_line1": "1 33971U 93036FE  25343.21330821  .00001691  00000+0  54716-3 0  9993",
        "tle_line2": "2 33971  74.0252 260.2500 0018384   1.3462 155.0762 14.39716072880888"
      },
      "geometry": {
        "type": "Point",
        "coordinates": [
          -49.11769234760456,
          70.15422558925708
        ]
      }
    }
  ]
}